OBJECT_NAME,OBJECT_ID,EPOCH,MEAN_MOTION,ECCENTRICITY,INCLINATION,RA_OF_ASC_NODE,ARG_OF_PERICENTER,MEAN_ANOMALY,EPHEMERIS_TYPE,CLASSIFICATION_TYPE,NORAD_CAT_ID,ELEMENT_SET_NO,REV_AT_EPOCH,BSTAR,MEAN_MOTION_DOT,MEAN_MOTION_DDOT
IRIDIUM 135,2017-083A,2026-07-21T08:06:55.186272,14.34217443,.0002116,86.3985,307.7409,94.9687,265.1750,0,U,43070,999,44904,-.12101178E-4,-.14E-6,0
IRIDIUM 138,2017-083B,2026-07-21T08:43:27.105888,14.34217522,.00020636,86.4000,307.4309,95.5262,264.6169,0,U,43071,999,44903,.29841847E-4,.103E-5,0
IRIDIUM 116,2017-083C,2026-07-21T07:57:47.274624,14.34217525,.00025072,86.3985,307.7291,97.0588,263.0893,0,U,43072,999,44906,.53736166E-4,.17E-5,0
IRIDIUM 130,2017-083D,2026-07-21T13:53:59.166528,14.34219347,.0002355,86.3996,307.9045,100.3430,259.8032,0,U,43073,999,44904,.12336499E-3,.365E-5,0
IRIDIUM 151,2017-083E,2026-07-21T13:17:27.195072,14.34217963,.00022789,86.3988,307.6948,95.0455,265.1001,0,U,43074,999,44906,.20191385E-4,.76E-6,0
IRIDIUM 134,2017-083F,2026-07-21T07:30:23.169024,14.34217617,.00021441,86.3987,307.8043,96.4524,263.6916,0,U,43075,999,44899,-.528746E-5,.5E-7,0
IRIDIUM 137,2017-083G,2026-07-21T12:50:03.271776,14.34217507,.00025288,86.3989,307.8049,90.2403,269.9083,0,U,43076,999,44909,-.8614844E-5,-.4E-7,0
IRIDIUM 141,2017-083H,2026-07-21T07:39:31.213728,14.34218003,.00021587,86.3985,307.7236,94.2560,265.8883,0,U,43077,999,44906,.58551895E-4,.184E-5,0
IRIDIUM 153,2017-083J,2026-07-21T06:30:39.393792,14.34217518,.00020221,86.3954,276.2213,95.8396,264.3030,0,U,43078,999,45016,-.5148277E-5,.5E-7,0
IRIDIUM 131,2017-083K,2026-07-21T14:03:07.184448,14.34217612,.00020755,86.3989,307.8005,93.1504,266.9929,0,U,43079,999,44903,-.3012793E-5,.11E-6,0
IRIDIUM 144,2018-030A,2026-07-21T11:41:11.425056,14.34217800,.0002394,86.3952,276.0598,96.0188,264.1281,0,U,43249,999,43505,.33990078E-4,.115E-5,0
IRIDIUM 149,2018-030B,2026-07-21T06:48:55.429632,14.34217407,.00021133,86.3951,276.1110,93.9518,266.1920,0,U,43250,999,43504,-.10412196E-4,-.9E-7,0
IRIDIUM 157,2018-030C,2026-07-21T05:35:51.443520,14.34217893,.00022442,86.3950,276.1863,94.6975,265.4477,0,U,43251,999,43501,.1543834E-4,.63E-6,0
IRIDIUM 140,2018-030D,2026-07-21T06:03:15.453216,14.34218120,.00022776,86.3949,276.1910,96.4404,263.7051,0,U,43252,999,43507,.51381859E-4,.164E-5,0
IRIDIUM 145,2018-030E,2026-07-21T05:44:59.508960,14.34217483,.00025755,86.3950,276.1681,96.9946,263.1543,0,U,43253,999,43500,.4157547E-5,.31E-6,0
IRIDIUM 146,2018-030F,2026-07-21T11:59:27.511008,14.34217284,.00022531,86.3952,276.0716,95.4062,264.7391,0,U,43254,999,43505,-.3392598E-5,.1E-6,0
IRIDIUM 148,2018-030G,2026-07-21T11:13:47.474976,14.34218017,.00022931,86.3951,276.1285,92.6567,267.4892,0,U,43255,999,43508,.19405662E-4,.74E-6,0
IRIDIUM 142,2018-030H,2026-07-21T10:28:07.501152,14.34217914,.00024285,86.3950,276.0297,95.7511,264.3961,0,U,43256,999,43504,.44811876E-4,.145E-5,0
IRIDIUM 150,2018-030J,2026-07-21T06:21:31.470048,14.34217072,.00022203,86.3953,276.2186,96.2340,263.9109,0,U,43257,999,43504,.489E-8,.2E-6,0
IRIDIUM 143,2018-030K,2026-07-21T14:16:27.446304,14.34218015,.00023311,86.3954,276.1747,95.8773,264.2689,0,U,43258,999,43502,.18800938E-4,.72E-6,0
IRIDIUM 161,2018-047C,2026-07-21T03:23:12.066432,14.43277777,.00021555,86.4456,74.2703,80.8951,279.2494,0,U,43478,999,43003,.54594395E-4,.204E-5,0
IRIDIUM 152,2018-047D,2026-07-21T03:34:22.213344,14.34217496,.00019569,86.3927,74.1280,83.7305,276.4114,0,U,43479,999,42735,-.21630738E-4,-.41E-6,0
IRIDIUM 147,2018-047E,2026-07-21T13:46:18.258816,14.34217809,.00023011,86.3932,73.9563,87.4496,272.6963,0,U,43480,999,42741,.10509309E-4,.49E-6,0
IRIDIUM 110,2018-047F,2026-07-21T13:55:26.092704,14.34217794,.00020079,86.3935,74.0466,78.7010,281.4411,0,U,43481,999,42740,.64219804E-4,.2E-5,0
IRIDIUM 162,2018-047G,2026-07-21T03:14:07.224576,14.43280569,.0002183,86.4454,74.1634,86.6728,273.4723,0,U,43482,999,43002,.5519651E-4,.206E-5,0
IRIDIUM 160,2018-061A,2026-07-21T02:34:38.427744,14.34217955,.00022033,86.3939,42.6078,86.8048,273.3399,0,U,43569,999,41823,.26005892E-4,.93E-6,0
IRIDIUM 166,2018-061B,2026-07-21T13:13:58.524384,14.34217293,.00021874,86.3932,42.3721,90.1451,269.9995,0,U,43570,999,41832,-.10804516E-4,-.1E-6,0
IRIDIUM 158,2018-061C,2026-07-21T02:25:30.480672,14.34218056,.00021131,86.3937,42.5703,89.1531,270.9907,0,U,43571,999,41822,.45926112E-4,.148E-5,0
IRIDIUM 165,2018-061D,2026-07-21T13:04:50.522880,14.34217686,.00022726,86.3943,42.4316,90.4716,269.6741,0,U,43572,999,41831,.19547472E-4,.75E-6,0
IRIDIUM 155,2018-061E,2026-07-21T12:10:02.424000,14.34218217,.00021734,86.3935,42.3149,90.5528,269.5917,0,U,43573,999,41827,.28450768E-4,.99E-6,0
